ATLAS CENTAUR 2         
1 00694U 63047A   26199.23560349  .00000440  00000+0  40502-4 0  9990
2 00694  30.3516 185.7512 0545670 151.3357 211.8397 14.12567071150090
THOR AGENA D R/B        
1 00733U 64002A   26199.06540197  .00000071  00000+0  42736-4 0  9997
2 00733  99.1156 219.4630 0031913 237.9545 121.8537 14.34076875256985
SL-3 R/B                
1 00877U 64053B   26198.71331280  .00000024  00000+0  28971-4 0  9997
2 00877  65.0780 310.0057 0080167 251.5210 107.7165 14.61440311285797
SL-8 R/B                
1 02802U 67045B   26199.15634759  .00000128  00000+0  43025-4 0  9999
2 02802  74.0110 104.4187 0063064  80.2521 280.5752 14.45696279107874
SL-8 R/B                
1 03230U 68040B   26199.04955460  .00001412  00000+0  10487-3 0  9996
2 03230  74.0290  47.1651 0024958 194.5909 165.4563 15.03947825109601
OAO 2                   
1 03597U 68110A   26199.30483195  .00000072  00000+0  24356-4 0  9992
2 03597  34.9928 255.9313 0005296 170.9705 189.1082 14.47362369 38038
ISIS 1                  
1 03669U 69009A   26199.26100202  .00000067  00000+0  39661-4 0  9999
2 03669  88.4452 140.9879 1707182 185.4664 172.5351 11.30436768363280
SERT 2                  
1 04327U 70009A   26199.27679745 -.00000013  00000+0  38514-4 0  9995
2 04327  99.2839 135.3218 0004684 180.7897 344.1389 13.58741088797621
SL-3 R/B                
1 05118U 71028B   26199.13351753  .00035457  00000+0  26167-3 0  9996
2 05118  81.2296 249.5294 0014745 171.9732 188.1766 15.72669160  9101
ASTEX 1                 
1 05560U 71089A   26199.03941574  .00000235  00000+0  59864-4 0  9996
2 05560  92.7008 193.7925 0015972  13.2148 346.9473 14.50872733881208
SL-8 R/B                
1 05730U 71119B   26198.80190027  .00003917  00000+0  20172-3 0  9991
2 05730  73.8877 292.0656 0542643 231.8686 123.2379 14.39754715674207
OAO 3 (COPERNICUS)      
1 06153U 72065A   26199.27970860  .00000113  00000+0  27492-4 0  9993
2 06153  35.0057 273.2422 0006217 153.5469 252.7204 14.60075664865299
ATLAS CENTAUR R/B       
1 06155U 72065B   26199.21776372  .00000315  00000+0  46112-4 0  9995
2 06155  35.0008 260.6197 0033285  28.2338 332.0159 14.77967751860587
SL-8 R/B                
1 08459U 75112B   26199.13270137  .00000123  00000+0  48985-4 0  9996
2 08459  74.0608 138.9447 0016090 201.1245 158.9247 14.38258973650625
SL-3 R/B                
1 10114U 77057B   26199.24133415  .00005781  00000+0  11070-3 0  9995
2 10114  97.5858  17.3020 0007523 159.7303 200.4247 15.48449011688513
SEASAT 1                
1 10967U 78064A   26199.15756030 -.00000008  00000+0  36203-4 0  9998
2 10967 108.0181  39.3040 0001063 260.3288  99.7738 14.46260971525377
SL-14 R/B               
1 11267U 79011B   26199.29348020  .00000271  00000+0  24192-4 0  9991
2 11267  82.5258 332.6329 0015503 346.7309  13.3500 14.92039523548257
SL-8 R/B                
1 11574U 79089B   26199.13793965  .00000079  00000+0  31774-4 0  9992
2 11574  74.0669 209.5611 0016131 343.8318  16.2321 14.42415403454914
SL-14 R/B               
1 11672U 80005B   26199.05713459  .00000270  00000+0  24570-4 0  9991
2 11672  82.5139 183.5567 0017346  88.8913 271.4293 14.91051452495918
SL-8 R/B                
1 12139U 81003B   26198.93791927  .00013894  00000+0  32888-3 0  9997
2 12139  82.9371 169.1835 0249931  84.1251 278.8410 15.15136873334370
SL-3 R/B                
1 12465U 81046B   26199.22160524  .00006550  00000+0  13853-3 0  9994
2 12465  81.2316 132.6670 0015676 285.5761  74.3753 15.44821561458569
SL-3 R/B                
1 12904U 81103B   26199.20815726  .00002083  00000+0  88633-4 0  9991
2 12904  81.1566  60.1804 0012231 201.2935 158.7790 15.22500861993081
SL-3 R/B                
1 13068U 82013B   26199.23569896  .00001892  00000+0  78828-4 0  9993
2 13068  81.1741   7.6045 0022937  98.7559 261.6272 15.22973622424218
SL-3 R/B                
1 13154U 82039B   26199.23282241  .00001468  00000+0  86427-4 0  9996
2 13154  81.1512  65.2225 0028619 248.0640 111.7543 15.10707503401349
SL-3 R/B                
1 13403U 82079B   26199.26440150  .00002468  00000+0  94025-4 0  9999
2 13403  81.1445  38.7174 0024948  83.6868 276.7206 15.26030134397602
SL-14 R/B               
1 13553U 82092B   26199.02184293  .00000201  00000+0  19803-4 0  9991
2 13553  82.5670  19.4448 0019162 225.7301 252.4286 14.86765948348299
SL-3 R/B                
1 13819U 83010B   26199.05391483  .00008015  00000+0  14222-3 0  9991
2 13819  81.0997 201.9256 0013068 312.7112  47.3033 15.49957030378111
SL-3 R/B                
1 14208U 83075B   26199.30750458  .00005564  00000+0  13596-3 0  9993
2 14208  97.6108 209.0958 0022336 119.3472 241.0008 15.41016153350251
COSMOS 1536             
1 14699U 84013A   26198.86629577  .00003998  00000+0  15680-3 0  9992
2 14699  82.5463 338.2799 0014169 178.8701 181.2572 15.25363483292451
SL-14 R/B               
1 14820U 84027B   26199.18819513  .00000208  00000+0  20919-4 0  9993
2 14820  82.5429 122.6474 0016333 260.6386  99.2984 14.86080124267011
